[{"OBJECT_NAME":"STARLINK-35459","OBJECT_ID":"2025-223C","EPOCH":"2026-03-09T21:23:04.083072","MEAN_MOTION":15.30176249,"ECCENTRICITY":5.218e-5,"INCLINATION":53.1596,"RA_OF_ASC_NODE":293.4445,"ARG_OF_PERICENTER":51.8078,"MEAN_ANOMALY":308.297,"EPHEMERIS_TYPE":0,"CLASSIFICATION_TYPE":"U","NORAD_CAT_ID":65856,"ELEMENT_SET_NO":999,"REV_AT_EPOCH":2423,"BSTAR":0.00074112937,"MEAN_MOTION_DOT":0.00021639,"MEAN_MOTION_DDOT":0},{"OBJECT_NAME":"COSMOS 1975","OBJECT_ID":"1988-093A","EPOCH":"2026-03-09T14:15:08.474112","MEAN_MOTION":15.28069249,"ECCENTRICITY":0.0012117,"INCLINATION":82.5181,"RA_OF_ASC_NODE":117.7814,"ARG_OF_PERICENTER":163.8427,"MEAN_ANOMALY":196.3201,"EPHEMERIS_TYPE":0,"CLASSIFICATION_TYPE":"U","NORAD_CAT_ID":19573,"ELEMENT_SET_NO":999,"REV_AT_EPOCH":1939,"BSTAR":0.0002787,"MEAN_MOTION_DOT":7.676e-5,"MEAN_MOTION_DDOT":0}]
